{
  "type": "FeatureCollection",
  "features": [
    {
      "type": "Feature",
      "properties": {
        "norad_id": 41890,
        "name": "CYGFM07",
        "group": "weather",
        "lat": 31.54962854060117,
        "lon": 79.216331126035,
        "alt_km": 416.8055562164154,
        "timestamp": "2025-12-13T07:35:41.187492+00:00",
        "meta_object_name": "CYGFM07",
        "meta_object_id": "2016-078G",
        "meta_epoch": "2025-12-12T18:56:41.408160",
        "meta_mean_motion": 15.50001418,
        "meta_eccentricity": 0.00098582,
        "meta_inclination": 34.9485,
        "meta_ra_of_asc_node": 21.1284,
        "meta_arg_of_pericenter": 216.412,
        "meta_mean_anomaly": 143.5933,
        "meta_ephemeris_type": 0,
        "meta_classification_type": "U",
        "meta_norad_cat_id": 41890,
        "meta_element_set_no": 999,
        "meta_rev_at_epoch": 49996,
        "meta_bstar": 0.00047938759,
        "meta_mean_motion_dot": 0.00027818,
        "meta_mean_motion_ddot": 0,
        "tle_line1": "1 41890U 16078G   25346.78936815  .00027818  00000+0  47939-3 0  9991",
        "tle_line2": "2 41890  34.9485  21.1284 0009858 216.4120 143.5933 15.50001418499961"
      },
      "geometry": {
        "type": "Point",
        "coordinates": [
          79.216331126035,
          31.54962854060117
        ]
      }
    },
    {
      "type": "Feature",
      "properties": {
        "norad_id": 41891,
        "name": "CYGFM03",
        "group": "weather",
        "lat": -34.402922632843676,
        "lon": -81.67757341011358,
        "alt_km": 415.07157480095975,
        "timestamp": "2025-12-13T07:35:41.187502+00:00",
        "meta_object_name": "CYGFM03",
        "meta_object_id": "2016-078H",
        "meta_epoch": "2025-12-12T19:39:17.081280",
        "meta_mean_motion": 15.49902051,
        "meta_eccentricity": 0.0009306,
        "meta_inclination": 34.9439,
        "meta_ra_of_asc_node": 22.8525,
        "meta_arg_of_pericenter": 204.5455,
        "meta_mean_anomaly": 155.4825,
        "meta_ephemeris_type": 0,
        "meta_classification_type": "U",
        "meta_norad_cat_id": 41891,
        "meta_element_set_no": 999,
        "meta_rev_at_epoch": 49994,
        "meta_bstar": 0.00048287041,
        "meta_mean_motion_dot": 0.00027916,
        "meta_mean_motion_ddot": 0,
        "tle_line1": "1 41891U 16078H   25346.81894770  .00027916  00000+0  48287-3 0  9995",
        "tle_line2": "2 41891  34.9439  22.8525 0009306 204.5455 155.4825 15.49902051499945"
      },
      "geometry": {
        "type": "Point",
        "coordinates": [
          -81.67757341011358,
          -34.402922632843676
        ]
      }
    },
    {
      "type": "Feature",
      "properties": {
        "norad_id": 43010,
        "name": "FENGYUN 3D",
        "group": "weather",
        "lat": 71.16006508322114,
        "lon": -74.00582797501723,
        "alt_km": 819.71333921111,
        "timestamp": "2025-12-13T07:35:41.187511+00:00",
        "meta_object_name": "FENGYUN 3D",
        "meta_object_id": "2017-072A",
        "meta_epoch": "2025-12-13T00:29:04.307136",
        "meta_mean_motion": 14.19685218,
        "meta_eccentricity": 9.538e-05,
        "meta_inclination": 98.9894,
        "meta_ra_of_asc_node": 313.3345,
        "meta_arg_of_pericenter": 181.691,
        "meta_mean_anomaly": 178.4262,
        "meta_ephemeris_type": 0,
        "meta_classification_type": "U",
        "meta_norad_cat_id": 43010,
        "meta_element_set_no": 999,
        "meta_rev_at_epoch": 41857,
        "meta_bstar": 0.00022227472,
        "meta_mean_motion_dot": 4.24e-06,
        "meta_mean_motion_ddot": 0,
        "tle_line1": "1 43010U 17072A   25347.02018874  .00000424  00000+0  22227-3 0  9993",
        "tle_line2": "2 43010  98.9894 313.3345 0000953 181.6910 178.4262 14.19685218418572"
      },
      "geometry": {
        "type": "Point",
        "coordinates": [
          -74.00582797501723,
          71.16006508322114
        ]
      }
    },
    {
      "type": "Feature",
      "properties": {
        "norad_id": 43013,
        "name": "NOAA 20 (JPSS-1)",
        "group": "weather",
        "lat": -44.838535189903006,
        "lon": 94.78737347535575,
        "alt_km": 834.8108014332147,
        "timestamp": "2025-12-13T07:35:41.187521+00:00",
        "meta_object_name": "NOAA 20 (JPSS-1)",
        "meta_object_id": "2017-073A",
        "meta_epoch": "2025-12-12T22:04:40.586016",
        "meta_mean_motion": 14.19525775,
        "meta_eccentricity": 0.00021544,
        "meta_inclination": 98.7598,
        "meta_ra_of_asc_node": 283.2147,
        "meta_arg_of_pericenter": 86.9536,
        "meta_mean_anomaly": 273.1887,
        "meta_ephemeris_type": 0,
        "meta_classification_type": "U",
        "meta_norad_cat_id": 43013,
        "meta_element_set_no": 999,
        "meta_rev_at_epoch": 41804,
        "meta_bstar": 9.3629431e-05,
        "meta_mean_motion_dot": 1.53e-06,
        "meta_mean_motion_ddot": 0,
        "tle_line1": "1 43013U 17073A   25346.91991419  .00000153  00000+0  93629-4 0  9993",
        "tle_line2": "2 43013  98.7598 283.2147 0002154  86.9536 273.1887 14.19525775418044"
      },
      "geometry": {
        "type": "Point",
        "coordinates": [
          94.78737347535575,
          -44.838535189903006
        ]
      }
    },
    {
      "type": "Feature",
      "properties": {
        "norad_id": 43226,
        "name": "GOES 17",
        "group": "weather",
        "lat": 0.15401797747468862,
        "lon": 106.66439662640607,
        "alt_km": 35799.685960061885,
        "timestamp": "2025-12-13T07:35:41.187540+00:00",
        "meta_object_name": "GOES 17",
        "meta_object_id": "2018-022A",
        "meta_epoch": "2025-12-12T21:36:52.022304",
        "meta_mean_motion": 1.00271662,
        "meta_eccentricity": 0.00032567,
        "meta_inclination": 0.4605,
        "meta_ra_of_asc_node": 89.1019,
        "meta_arg_of_pericenter": 187.759,
        "meta_mean_anomaly": 39.7029,
        "meta_ephemeris_type": 0,
        "meta_classification_type": "U",
        "meta_norad_cat_id": 43226,
        "meta_element_set_no": 999,
        "meta_rev_at_epoch": 2855,
        "meta_bstar": 0,
        "meta_mean_motion_dot": -1.7e-06,
        "meta_mean_motion_ddot": 0,
        "tle_line1": "1 43226U 18022A   25346.90060211 -.00000170  00000+0  00000+0 0  9996",
        "tle_line2": "2 43226   0.4605  89.1019 0003256 187.7590  39.7029  1.00271662 28550"
      },
      "geometry": {
        "type": "Point",
        "coordinates": [
          106.66439662640607,
          0.15401797747468862
        ]
      }
    },
    {
      "type": "Feature",
      "properties": {
        "norad_id": 43491,
        "name": "FENGYUN 2H",
        "group": "weather",
        "lat": -0.6443703988548366,
        "lon": -84.47230568683977,
        "alt_km": 35775.78209220932,
        "timestamp": "2025-12-13T07:35:41.187552+00:00",
        "meta_object_name": "FENGYUN 2H",
        "meta_object_id": "2018-050A",
        "meta_epoch": "2025-12-13T00:07:48.326880",
        "meta_mean_motion": 1.00271214,
        "meta_eccentricity": 0.00028022,
        "meta_inclination": 2.5519,
        "meta_ra_of_asc_node": 81.3276,
        "meta_arg_of_pericenter": 167,
        "meta_mean_anomaly": 274.9264,
        "meta_ephemeris_type": 0,
        "meta_classification_type": "U",
        "meta_norad_cat_id": 43491,
        "meta_element_set_no": 999,
        "meta_rev_at_epoch": 2757,
        "meta_bstar": 0,
        "meta_mean_motion_dot": -1.17e-06,
        "meta_mean_motion_ddot": 0,
        "tle_line1": "1 43491U 18050A   25347.00542045 -.00000117  00000+0  00000+0 0  9994",
        "tle_line2": "2 43491   2.5519  81.3276 0002802 167.0000 274.9264  1.00271214 27571"
      },
      "geometry": {
        "type": "Point",
        "coordinates": [
          -84.47230568683977,
          -0.6443703988548366
        ]
      }
    },
    {
      "type": "Feature",
      "properties": {
        "norad_id": 43689,
        "name": "METOP-C",
        "group": "weather",
        "lat": 10.239325774420148,
        "lon": 43.493636910374576,
        "alt_km": 821.0384425033808,
        "timestamp": "2025-12-13T07:35:41.187562+00:00",
        "meta_object_name": "METOP-C",
        "meta_object_id": "2018-087A",
        "meta_epoch": "2025-12-12T23:05:58.358400",
        "meta_mean_motion": 14.2148461,
        "meta_eccentricity": 0.00012317,
        "meta_inclination": 98.6931,
        "meta_ra_of_asc_node": 44.7288,
        "meta_arg_of_pericenter": 38.7686,
        "meta_mean_anomaly": 321.3579,
        "meta_ephemeris_type": 0,
        "meta_classification_type": "U",
        "meta_norad_cat_id": 43689,
        "meta_element_set_no": 999,
        "meta_rev_at_epoch": 36837,
        "meta_bstar": 0.00013998288,
        "meta_mean_motion_dot": 2.63e-06,
        "meta_mean_motion_ddot": 0,
        "tle_line1": "1 43689U 18087A   25346.96248100  .00000263  00000+0  13998-3 0  9997",
        "tle_line2": "2 43689  98.6931  44.7288 0001231  38.7686 321.3579 14.21484610368374"
      },
      "geometry": {
        "type": "Point",
        "coordinates": [
          43.493636910374576,
          10.239325774420148
        ]
      }
    }
  ]
}